{
  "type": "FeatureCollection",
  "features": [
    {
      "type": "Feature",
      "properties": {
        "norad_id": 58655,
        "name": "BEIDOU-3 M26 (C48)",
        "group": "beidou",
        "lat": 22.519748372054654,
        "lon": 84.66950681389075,
        "alt_km": 21532.411832954618,
        "timestamp": "2025-12-25T03:55:56.623130+00:00",
        "meta_object_name": "BEIDOU-3 M26 (C48)",
        "meta_object_id": "2023-207B",
        "meta_epoch": "2025-12-22T23:23:41.171712",
        "meta_mean_motion": 1.86231234,
        "meta_eccentricity": 0.00041871,
        "meta_inclination": 55.5951,
        "meta_ra_of_asc_node": 68.241,
        "meta_arg_of_pericenter": 260.4893,
        "meta_mean_anomaly": 99.5155,
        "meta_ephemeris_type": 0,
        "meta_classification_type": "U",
        "meta_norad_cat_id": 58655,
        "meta_element_set_no": 999,
        "meta_rev_at_epoch": 1354,
        "meta_bstar": 0,
        "meta_mean_motion_dot": -2.8e-07,
        "meta_mean_motion_ddot": 0,
        "tle_line1": "1 58655U 23207B   25356.97478208 -.00000028  00000+0  00000+0 0  9998",
        "tle_line2": "2 58655  55.5951  68.2410 0004187 260.4893  99.5155  1.86231234 13541"
      },
      "geometry": {
        "type": "Point",
        "coordinates": [
          84.66950681389075,
          22.519748372054654
        ]
      }
    },
    {
      "type": "Feature",
      "properties": {
        "norad_id": 61186,
        "name": "BEIDOU-3 M25 (C47)",
        "group": "beidou",
        "lat": 28.234184935442414,
        "lon": 105.87706574210574,
        "alt_km": 21538.49781715931,
        "timestamp": "2025-12-25T03:55:56.623141+00:00",
        "meta_object_name": "BEIDOU-3 M25 (C47)",
        "meta_object_id": "2024-168B",
        "meta_epoch": "2025-12-24T01:04:04.997856",
        "meta_mean_motion": 1.86230087,
        "meta_eccentricity": 0.0005428,
        "meta_inclination": 54.6321,
        "meta_ra_of_asc_node": 308.3293,
        "meta_arg_of_pericenter": 299.9145,
        "meta_mean_anomaly": 174.1551,
        "meta_ephemeris_type": 0,
        "meta_classification_type": "U",
        "meta_norad_cat_id": 61186,
        "meta_element_set_no": 999,
        "meta_rev_at_epoch": 852,
        "meta_bstar": 0,
        "meta_mean_motion_dot": -5.3e-07,
        "meta_mean_motion_ddot": 0,
        "tle_line1": "1 61186U 24168B   25358.04450229 -.00000053  00000+0  00000+0 0  9999",
        "tle_line2": "2 61186  54.6321 308.3293 0005428 299.9145 174.1551  1.86230087  8525"
      },
      "geometry": {
        "type": "Point",
        "coordinates": [
          105.87706574210574,
          28.234184935442414
        ]
      }
    },
    {
      "type": "Feature",
      "properties": {
        "norad_id": 61187,
        "name": "BEIDOU-3 M27 (C49)",
        "group": "beidou",
        "lat": -53.55170527189831,
        "lon": -125.66541310676422,
        "alt_km": 21530.518571359593,
        "timestamp": "2025-12-25T03:55:56.623152+00:00",
        "meta_object_name": "BEIDOU-3 M27 (C49)",
        "meta_object_id": "2024-168C",
        "meta_epoch": "2025-12-24T07:03:52.725600",
        "meta_mean_motion": 1.86230222,
        "meta_eccentricity": 0.0002547,
        "meta_inclination": 54.6273,
        "meta_ra_of_asc_node": 308.3043,
        "meta_arg_of_pericenter": 341.1399,
        "meta_mean_anomaly": 75.3953,
        "meta_ephemeris_type": 0,
        "meta_classification_type": "U",
        "meta_norad_cat_id": 61187,
        "meta_element_set_no": 999,
        "meta_rev_at_epoch": 600,
        "meta_bstar": 0,
        "meta_mean_motion_dot": -5.3e-07,
        "meta_mean_motion_ddot": 0,
        "tle_line1": "1 61187U 24168C   25358.29436025 -.00000053  00000+0  00000+0 0  9995",
        "tle_line2": "2 61187  54.6273 308.3043 0002547 341.1399  75.3953  1.86230222  6005"
      },
      "geometry": {
        "type": "Point",
        "coordinates": [
          -125.66541310676422,
          -53.55170527189831
        ]
      }
    }
  ]
}